NORAD_CAT_ID,OBJECT_NAME,OBJECT_TYPE,EPOCH,MEAN_MOTION,ECCENTRICITY,INCLINATION,RA_OF_ASC_NODE,ARG_OF_PERICENTER,MEAN_ANOMALY,BSTAR,MEAN_MOTION_DOT,MEAN_MOTION_DDOT,TLE_LINE0,TLE_LINE1,TLE_LINE2,SEMIMAJOR_AXIS,PERIOD,APOGEE,PERIGEE,DECAYED
51978.0,STARLINK-3666,PAYLOAD,2023-03-15 15:03:43,15.08850674,0.0001306,53.2151,252.6078,78.6129,281.5009,0.00036324,5.499e-05,0.0,0 STARLINK-3666,1 51978U 22025Y   23074.62758947  .00005499  00000-0  36324-3 0  9993,2 51978  53.2151 252.6078 0001306  78.6129 281.5009 15.08850674 56495,6917.848,95.437,540.616,538.809,0.0
51978.0,STARLINK-3666,PAYLOAD,2023-03-16 11:43:44,15.08844603,0.0001531,53.2139,248.7405,91.4059,268.7109,7.9897e-05,9.84e-06,0.0,0 STARLINK-3666,1 51978U 22025Y   23075.48871006  .00000984  00000-0  79897-4 0  9997,2 51978  53.2139 248.7405 0001531  91.4059 268.7109 15.08844603 57715,6917.866,95.437,540.79,538.672,0.0
51978.0,STARLINK-3666,PAYLOAD,2023-03-16 21:16:03,15.08832691,0.0001232,53.2156,246.9577,80.4631,279.65,-9.7476e-05,-1.839e-05,0.0,0 STARLINK-3666,1 51978U 22025Y   23075.88615532 -.00001839  00000-0 -97476-4 0  9996,2 51978  53.2156 246.9577 0001232  80.4631 279.6500 15.08832691 57772,6917.903,95.438,540.62,538.915,0.0
51978.0,STARLINK-3666,PAYLOAD,2023-03-17 11:34:32,15.08835304,0.0001244,53.2158,244.2813,79.6017,280.5116,5.0729e-05,5.19e-06,0.0,0 STARLINK-3666,1 51978U 22025Y   23076.48231729  .00000519  00000-0  50729-4 0  9997,2 51978  53.2158 244.2813 0001244  79.6017 280.5116 15.08835304 56776,6917.895,95.438,540.62,538.899,0.0
51978.0,STARLINK-3666,PAYLOAD,2023-03-17 17:56:04,15.08843018,0.0001273,53.2156,243.0918,81.4064,278.7073,0.00022097,3.231e-05,0.0,0 STARLINK-3666,1 51978U 22025Y   23076.74727504  .00003231  00000-0  22097-3 0  9997,2 51978  53.2156 243.0918 0001273  81.4064 278.7073 15.08843018 57900,6917.871,95.437,540.617,538.856,0.0
51978.0,STARLINK-3666,PAYLOAD,2023-03-17 21:06:50,15.08845273,0.0001252,53.2157,242.4971,80.9716,279.1417,0.00026316,3.903e-05,0.0,0 STARLINK-3666,1 51978U 22025Y   23076.87975443  .00003903  00000-0  26316-3 0  9992,2 51978  53.2157 242.4971 0001252  80.9716 279.1417 15.08845273 56831,6917.864,95.437,540.595,538.863,0.0
51978.0,STARLINK-3666,PAYLOAD,2023-03-18 11:25:19,15.08841347,0.0001289,53.2151,239.8209,84.4042,275.7097,0.00028612,4.269e-05,0.0,0 STARLINK-3666,1 51978U 22025Y   23077.47591805  .00004269  00000-0  28612-3 0  9992,2 51978  53.2151 239.8209 0001289  84.4042 275.7097 15.08841347 58016,6917.876,95.437,540.633,538.85,0.0
51978.0,STARLINK-3666,PAYLOAD,2023-03-18 20:57:37,15.08856135,0.0001324,53.2158,238.0371,84.6178,275.4965,0.00043552,6.653e-05,0.0,0 STARLINK-3666,1 51978U 22025Y   23077.87335075  .00006653  00000-0  43552-3 0  9990,2 51978  53.2158 238.0371 0001324  84.6178 275.4965 15.08856135 58074,6917.831,95.437,540.612,538.78,0.0
51978.0,STARLINK-3666,PAYLOAD,2023-03-19 03:19:10,15.08840593,0.0001508,53.2144,236.847,85.4084,274.7081,2.5113e-05,1.12e-06,0.0,0 STARLINK-3666,1 51978U 22025Y   23078.13831590  .00000112  00000-0  25113-4 0  9991,2 51978  53.2144 236.8470 0001508  85.4084 274.7081 15.08840593 58111,6917.879,95.438,540.787,538.7,0.0
51978.0,STARLINK-3666,PAYLOAD,2023-03-19 14:26:52,15.08840043,0.0001337,53.2159,234.766,93.9352,266.1793,-4.7377e-07,-2.95e-06,0.0,0 STARLINK-3666,1 51978U 22025Y   23078.60199630 -.00000295  00000-0 -47377-6 0  9997,2 51978  53.2159 234.7660 0001337  93.9352 266.1793 15.08840043 57098,6917.88,95.438,540.67,538.82,0.0
51978.0,STARLINK-3666,PAYLOAD,2023-03-19 17:37:38,15.08844964,0.0001222,53.2164,234.1725,97.6922,262.4209,0.00012178,1.651e-05,0.0,0 STARLINK-3666,1 51978U 22025Y   23078.73447389  .00001651  00000-0  12178-3 0  9991,2 51978  53.2164 234.1725 0001222  97.6922 262.4209 15.08844964 57117,6917.865,95.437,540.576,538.885,0.0
51978.0,STARLINK-3666,PAYLOAD,2023-03-20 09:31:29,15.08850195,0.0001092,53.2164,231.1983,85.9762,274.1355,0.00042052,6.413e-05,0.0,0 STARLINK-3666,1 51978U 22025Y   23079.39687257  .00006413  00000-0  42052-3 0  9999,2 51978  53.2164 231.1983 0001092  85.9762 274.1355 15.08850195 57213,6917.849,95.437,540.47,538.959,0.0
51978.0,STARLINK-3666,PAYLOAD,2023-03-20 14:17:39,15.08837188,0.0001225,53.216,230.3064,88.6837,271.4296,0.00014576,2.032e-05,0.0,0 STARLINK-3666,1 51978U 22025Y   23079.59559766  .00002032  00000-0  14576-3 0  9997,2 51978  53.2160 230.3064 0001225  88.6837 271.4296 15.08837188 58336,6917.889,95.438,540.601,538.907,0.0
51978.0,STARLINK-3666,PAYLOAD,2023-03-20 17:28:25,15.08843323,0.0001222,53.2161,229.7112,80.9682,279.1448,0.00016464,2.334e-05,0.0,0 STARLINK-3666,1 51978U 22025Y   23079.72807569  .00002334  00000-0  16464-3 0  9992,2 51978  53.2161 229.7112 0001222  80.9682 279.1448 15.08843323 57266,6917.87,95.437,540.581,538.89,0.0
51978.0,STARLINK-3666,PAYLOAD,2023-03-21 12:33:03,15.08836853,0.0001392,53.2159,226.1425,83.273,276.842,8.7127e-05,1.099e-05,0.0,0 STARLINK-3666,1 51978U 22025Y   23080.52295972  .00001099  00000-0  87127-4 0  9993,2 51978  53.2159 226.1425 0001392  83.2730 276.8420 15.08836853 57386,6917.89,95.438,540.718,538.792,0.0
51978.0,STARLINK-3666,PAYLOAD,2023-03-22 02:51:31,15.08848887,0.0001182,53.2171,223.4664,81.7145,278.3981,0.00025846,3.829e-05,0.0,0 STARLINK-3666,1 51978U 22025Y   23081.11911512  .00003829  00000-0  25846-3 0  9996,2 51978  53.2171 223.4664 0001182  81.7145 278.3981 15.08848887 58565,6917.853,95.437,540.536,538.901,0.0
51978.0,STARLINK-3666,PAYLOAD,2023-03-22 13:59:13,15.08841516,0.0001389,53.2165,221.3851,85.1905,274.9246,0.00015827,2.232e-05,0.0,0 STARLINK-3666,1 51978U 22025Y   23081.58279970  .00002232  00000-0  15827-3 0  9997,2 51978  53.2165 221.3851 0001389  85.1905 274.9246 15.08841516 58630,6917.876,95.437,540.702,538.78,0.0
51978.0,STARLINK-3666,PAYLOAD,2023-03-22 15:34:37,15.08838399,0.0001348,53.2167,221.0888,78.9479,281.1665,6.8196e-05,7.98e-06,0.0,0 STARLINK-3666,1 51978U 22025Y   23081.64904050  .00000798  00000-0  68196-4 0  9991,2 51978  53.2167 221.0888 0001348  78.9479 281.1665 15.08838399 57550,6917.885,95.438,540.683,538.818,0.0
51978.0,STARLINK-3666,PAYLOAD,2023-03-23 02:42:19,15.08828152,0.0001306,53.2165,219.0088,73.8413,286.2723,-5.2567e-05,-1.124e-05,0.0,0 STARLINK-3666,1 51978U 22025Y   23082.11272689 -.00001124  00000-0 -52567-4 0  9991,2 51978  53.2165 219.0088 0001306  73.8413 286.2723 15.08828152 58719,6917.917,95.438,540.685,538.878,0.0
51978.0,STARLINK-3666,PAYLOAD,2023-03-23 12:14:39,15.08824398,0.0001637,53.2172,217.2209,96.648,263.4698,-4.6847e-05,-1.033e-05,0.0,0 STARLINK-3666,1 51978U 22025Y   23082.51017577 -.00001033  00000-0 -46847-4 0  9991,2 51978  53.2172 217.2209 0001637  96.6480 263.4698 15.08824398 58778,6917.928,95.439,540.926,538.661,0.0
51978.0,STARLINK-3666,PAYLOAD,2023-03-23 13:50:02,15.08823898,0.0001333,53.2196,216.9237,98.8388,261.2756,-2.6329e-05,-7.07e-06,0.0,0 STARLINK-3666,1 51978U 22025Y   23082.57641599 -.00000707  00000-0 -26329-4 0  9994,2 51978  53.2196 216.9237 0001333  98.8388 261.2756 15.08823898 57690,6917.93,95.439,540.717,538.872,0.0
51978.0,STARLINK-3666,PAYLOAD,2023-03-23 15:25:24,15.08831128,0.0001425,53.2187,216.6276,120.9562,239.157,-2.1488e-05,-6.3e-06,0.0,0 STARLINK-3666,1 51978U 22025Y   23082.64264983 -.00000630  00000-0 -21488-4 0  9996,2 51978  53.2187 216.6276 0001425 120.9562 239.1570 15.08831128 58798,6917.908,95.438,540.758,538.787,0.0
51978.0,STARLINK-3666,PAYLOAD,2023-03-24 12:05:24,15.08855524,0.0001692,53.2179,212.7624,130.1916,229.9225,0.00039543,6.013e-05,0.0,0 STARLINK-3666,1 51978U 22025Y   23083.50375910  .00006013  00000-0  39543-3 0  9994,2 51978  53.2179 212.7624 0001692 130.1916 229.9225 15.08855524 58920,6917.833,95.437,540.868,538.527,0.0
51978.0,STARLINK-3666,PAYLOAD,2023-03-24 13:40:48,15.08856987,0.0001287,53.2196,212.4648,72.0437,288.0695,0.0005646,8.713e-05,0.0,0 STARLINK-3666,1 51978U 22025Y   23083.57000258  .00008713  00000-0  56460-3 0  9997,2 51978  53.2196 212.4648 0001287  72.0437 288.0695 15.08856987 57845,6917.828,95.436,540.584,538.803,0.0
51978.0,STARLINK-3666,PAYLOAD,2023-03-24 15:16:10,15.08874895,0.0001462,53.2172,212.1611,112.5252,247.5895,0.0010166,0.00015944,0.0,0 STARLINK-3666,1 51978U 22025Y   23083.63623699  .00015944  00000-0  10166-2 0  9990,2 51978  53.2172 212.1611 0001462 112.5252 247.5895 15.08874895 58948,6917.774,95.435,540.65,538.627,0.0
51978.0,STARLINK-3666,PAYLOAD,2023-03-25 11:56:12,15.08829747,0.0001544,53.2193,208.3007,125.2671,234.8466,-9.5969e-05,-1.815e-05,0.0,0 STARLINK-3666,1 51978U 22025Y   23084.49737254 -.00001815  00000-0 -95969-4 0  9998,2 51978  53.2193 208.3007 0001544 125.2671 234.8466 15.08829747 59078,6917.912,95.438,540.845,538.709,0.0
51978.0,STARLINK-3666,PAYLOAD,2023-03-25 15:06:58,15.08835034,0.0001662,53.2174,207.7033,136.7466,223.3657,-0.00011066,-2.049e-05,0.0,0 STARLINK-3666,1 51978U 22025Y   23084.62984935 -.00002049  00000-0 -11066-3 0  9998,2 51978  53.2174 207.7033 0001662 136.7466 223.3657 15.08835034 58002,6917.896,95.438,540.91,538.611,0.0
51978.0,STARLINK-3666,PAYLOAD,2023-03-26 00:39:17,15.08847264,0.0001145,53.2177,205.9211,118.2932,241.8176,0.00015594,2.195e-05,0.0,0 STARLINK-3666,1 51978U 22025Y   23085.02728963  .00002195  00000-0  15594-3 0  9990,2 51978  53.2177 205.9211 0001145 118.2932 241.8176 15.08847264 59158,6917.858,95.437,540.515,538.931,0.0
51978.0,STARLINK-3666,PAYLOAD,2023-03-26 18:08:31,15.08854271,0.0001424,53.2174,202.6493,115.5505,244.5634,0.00028178,4.201e-05,0.0,0 STARLINK-3666,1 51978U 22025Y   23085.75592044  .00004201  00000-0  28178-3 0  9991,2 51978  53.2174 202.6493 0001424 115.5505 244.5634 15.08854271 58173,6917.837,95.437,540.687,538.717,0.0
51978.0,STARLINK-3666,PAYLOAD,2023-03-27 13:13:09,15.08843397,0.0001643,53.2177,199.0852,111.2515,248.8653,0.00034197,5.159e-05,0.0,0 STARLINK-3666,1 51978U 22025Y   23086.55080807  .00005159  00000-0  34197-3 0  9990,2 51978  53.2177 199.0852 0001643 111.2515 248.8653 15.08843397 59380,6917.87,95.437,540.872,538.598,0.0
